ICEYE-X53               
1 64584U 25135BJ  26196.15847394  .00001412  00000+0  11568-3 0  9999
2 64584  97.7361 312.8174 0001910 165.3472 194.7808 15.00892155 58272
ICEYE-X65               
1 66300U 25248H   26195.51075334  .00001681  00000+0  12370-3 0  9998
2 66300  45.4057 350.4988 0005484 195.6128 164.4585 15.07925678 39647
ICEYE-X66               
1 66301U 25248J   26195.44282162  .00001814  00000+0  12799-3 0  9993
2 66301  45.4024 349.9449 0005126 191.3181 168.7587 15.09174059 39620
ICEYE-X67               
1 66302U 25248K   26195.46749690  .00001585  00000+0  11389-3 0  9999
2 66302  45.4060 349.3930 0006563 191.3599 168.7136 15.09156493 39643
ICEYE-X58               
1 66751U 25276CP  26196.14762647  .00001397  00000+0  73417-4 0  9993
2 66751  97.4197 269.0271 0002159 213.5037 146.6060 15.17306703 34653
ICEYE-X59               
1 66752U 25276CQ  26196.14579666  .00002664  00000+0  21452-3 0  9990
2 66752  97.4390 266.2481 0001070 142.2844 217.8456 15.00752713 34463
ICEYE-X60               
1 66753U 25276CR  26195.47108026  .00002869  00000+0  17596-3 0  9995
2 66753  97.4254 267.3325 0002238 293.0305  67.0689 15.10911363 34480
ICEYE-X61               
1 66754U 25276CS  26196.16584787  .00001609  00000+0  81009-4 0  9997
2 66754  97.4194 269.1345 0002080 215.9343 144.1752 15.18608533 34664
ICEYE-X62               
1 66755U 25276CT  26195.16514711  .00001140  00000+0  73697-4 0  9991
2 66755  97.4198 266.5267 0001064 276.0122  84.0986 15.10134811 34405
ICEYE-X63               
1 67372U 26004K   26195.98261947  .00000446  00000+0  54081-4 0  9991
2 67372  97.8014 194.1889 0005429  52.5106 307.6604 14.88348779 27436
ICEYE-X64               
1 67373U 26004L   26195.96403153  .00000635  00000+0  75158-4 0  9995
2 67373  97.8027 194.0899 0007253  54.6870 305.5024 14.87986833 27429
ICEYE-X71               
1 68494U 26067CG  26195.36222958  .00001475  00000+0  15178-3 0  9993
2 68494  97.7625 153.1825 0001068 349.9955  10.1242 14.91790708 15779
ICEYE-X73               
1 68496U 26067CJ  26195.85958419  .00001030  00000+0  10618-3 0  9998
2 68496  97.7621 153.7579 0001488 148.8382 211.2925 14.92347642 15852
ICEYE-X75               
1 68497U 26067CK  26196.13225878  .00000301  00000+0  35073-4 0  9990
2 68497  97.7606 153.9939 0001444 145.0852 215.0462 14.92173675 15896
ICEYE-X74               
1 68500U 26067CN  26195.89796383  .00001437  00000+0  14807-3 0  9993
2 68500  97.7632 153.7202 0000865 344.1575  15.9616 14.91792312 15859
ICEYE-X76               
1 68502U 26067CQ  26195.89384647  .00000662  00000+0  71191-4 0  9990
2 68502  97.7639 153.7343 0000582 320.9420  39.1757 14.91750383 15857
